COSMOS 1408             
1 13552U 82092A   24152.75190709  .00083316  00000+0  86757-3 0  9995
2 13552  82.5558 259.5289 0011443  34.0558 326.1433 15.64187306142919
COSMOS 1408 DEB         
1 49527U 82092Q   24153.11642323  .00045338  00000+0  38053-2 0  9998
2 49527  82.3788  28.2026 0351215 131.0724 232.1393 14.60703619132679
COSMOS 1408 DEB         
1 49537U 82092AA  24152.91433037  .00025241  00000+0  10523-2 0  9999
2 49537  82.5513 309.4397 0115845 117.5558 243.7502 15.17527929139414
COSMOS 1408 DEB         
1 49539U 82092AC  24153.08842628  .00069280  00000+0  50542-2 0  9996
2 49539  82.1975  10.3247 0304918 160.2953 201.0350 14.73017771132276
COSMOS 1408 DEB         
1 49604U 82092CV  24153.33512369  .00149271  00000+0  11857-2 0  9998
2 49604  82.4967 269.0523 0019432   7.7183 352.4374 15.70534596141574
COSMOS 1408 DEB         
1 49619U 82092DL  24153.50633648  .00060703  00000+0  43430-2 0  9991
2 49619  81.9606 337.0263 0309995 161.9511 199.3007 14.72834534132549
COSMOS 1408 DEB         
1 49789U 82092JF  24152.80208377  .00180260  00000+0  16125-2 0  9990
2 49789  82.5874 289.1588 0030345  11.0139 349.1779 15.67200431140794
COSMOS 1408 DEB         
1 49840U 82092KX  24152.84931415  .00202973  00000+0  20097-2 0  9997
2 49840  82.4651 282.7125 0035461 114.9958 245.4991 15.64397036138534
COSMOS 1408 DEB         
1 50020U 82092RG  24153.47327230  .00464260  93858-4  82095-3 0  9997
2 50020  82.5992 260.9384 0009255 265.3593  94.6629 16.01843474141134
COSMOS 1408 DEB         
1 50032U 82092RU  24153.34145816  .00005013  00000+0  13244-3 0  9993
2 50032  82.5663 268.5421 0019911  75.3325 285.0125 15.37952943139831
COSMOS 1408 DEB         
1 50058U 82092SW  24152.82029540  .00011008  00000+0  29460-3 0  9996
2 50058  82.6167 282.5481 0029158 348.3134  11.7430 15.37440565141340
COSMOS 1408 DEB         
1 50123U 82092VP  24152.76593386  .00106972  00000+0  10236-2 0  9991
2 50123  82.5577 260.1180 0006410 301.4853  58.5780 15.66309857142583
COSMOS 1408 DEB         
1 50284U 82092YZ  24145.84244977  .00269246  00000+0  12173-2 0  9995
2 50284  82.6554 279.3433 0005218 322.8335  37.2572 15.83261600138071
COSMOS 1408 DEB         
1 50351U 82092ABM 24152.75574636  .00044585  00000+0  15795-2 0  9996
2 50351  82.5209 314.0154 0125927 142.7104 218.2959 15.21616702138925
COSMOS 1408 DEB         
1 50363U 82092ABZ 24152.78384051  .00069374  00000+0  14334-2 0  9993
2 50363  82.4092 276.9905 0054654 111.6977 249.0102 15.43918442137367
COSMOS 1408 DEB         
1 50404U 82092ADS 24152.63557672  .00034188  00000+0  35865-2 0  9991
2 50404  82.2463  32.4757 0424414 206.5677 151.3201 14.40538982129481
COSMOS 1408 DEB         
1 50578U 82092AJW 24152.81687809  .00059393  00000+0  71471-3 0  9998
2 50578  82.7077 288.2269 0016932 354.6336   5.4736 15.60422018137764
COSMOS 1408 DEB         
1 50621U 82092ALR 24153.39218722  .00009860  00000+0  30609-3 0  9997
2 50621  82.5782 284.7271 0048666  19.2686 341.0381 15.32026418136216
COSMOS 1408 DEB         
1 50689U 82092APM 24152.78961889  .00026536  00000+0  45896-3 0  9995
2 50689  82.5109 261.8832 0038219 289.0414  70.6699 15.49953309135998
COSMOS 1408 DEB         
1 50730U 82092ARE 24153.34666414  .00053893  00000+0  61910-3 0  9992
2 50730  82.5563 264.6268 0011323 327.0323  33.0227 15.61746935136936
COSMOS 1408 DEB         
1 50967U 82092AXN 24152.81922767  .00149139  00000+0  90853-3 0  9998
2 50967  82.7093 284.6792 0008843 294.6950  65.3395 15.76946373136006
COSMOS 1408 DEB         
1 51184U 82092AZJ 24152.77418239  .00029516  00000+0  54332-3 0  9997
2 51184  82.4928 257.8823 0018274 293.0071  66.9251 15.48836367133965
COSMOS 1408 DEB         
1 51225U 82092BBB 24152.58864593  .00059283  00000+0  75752-3 0  9993
2 51225  82.4555 259.8244 0038462  73.0222 287.5243 15.58096595134540
COSMOS 1408 DEB         
1 51322U 82092BEQ 24150.81185736  .00691654  23552-3  98943-3 0  9992
2 51322  82.7134 284.8901 0012043 347.4930  12.6050 16.05385895134093
COSMOS 1408 DEB         
1 51435U 82092BKH 24152.81256328  .00027794  00000+0  71469-3 0  9996
2 51435  82.5541 286.7850 0053686  42.9288 317.6127 15.37606500131524
COSMOS 1408 DEB         
1 51579U 82092BNG 24153.03356746  .00055425  00000+0  85253-3 0  9993
2 51579  82.4882 267.6629 0028715  41.4744 318.8680 15.53516341131920
COSMOS 1408 DEB         
1 51582U 82092BNK 24153.11280004  .00054085  00000+0  98792-3 0  9992
2 51582  82.5569 285.0460 0047920  22.0710 338.2588 15.47874198131711
COSMOS 1408 DEB         
1 52066U 82092BUU 24152.90079588  .00032242  00000+0  14062-2 0  9997
2 52066  82.5159 319.4272 0146742 172.4683 187.8805 15.12716964123920
